SHIYAN-24C 02           
1 58651U 23206B   26068.89175597  .00002770  00000+0  23935-3 0  9991
2 58651  97.3985  41.8071 0003465  80.6641 279.4974 14.97980163120443
STARLINK-35660          
1 67003U 25293A   26068.49468287  .00001883  00000+0  16551-3 0  9997
2 67003  70.0002  95.1494 0003498 266.2084  93.8675 14.98333771 14853
